OBJECT_NAME,OBJECT_ID,EPOCH,MEAN_MOTION,ECCENTRICITY,INCLINATION,RA_OF_ASC_NODE,ARG_OF_PERICENTER,MEAN_ANOMALY,EPHEMERIS_TYPE,CLASSIFICATION_TYPE,NORAD_CAT_ID,ELEMENT_SET_NO,REV_AT_EPOCH,BSTAR,MEAN_MOTION_DOT,MEAN_MOTION_DDOT
SWARM A,2013-067B,2026-06-15T03:43:06.524832,15.50919224,.0003007,87.3331,56.9974,94.7653,265.3951,0,U,39452,999,70593,.15477E-3,.8997E-4,0
SWARM C,2013-067C,2026-06-15T02:10:01.830144,15.50916759,.0003002,87.3330,55.6025,95.2152,264.9452,0,U,39453,999,70588,.16982E-3,.9867E-4,0
BRITE-CA1 (TORONTO),2014-033L,2026-06-15T03:14:53.123712,14.72674008,.0077249,97.9736,295.1011,283.7046,75.5570,0,U,40020,999,64191,.98268E-4,.601E-5,0
OCO 2,2014-035A,2026-06-15T03:56:15.080352,14.57109710,.0001503,98.2018,107.4879,86.1333,274.0037,0,U,40059,999,63575,.83724E-4,.332E-5,0
BRITE-PL2 (HEWELIUSZ),2014-049B,2026-06-15T02:19:34.364928,14.94586836,.0015219,97.9096,278.0808,114.6799,245.6008,0,U,40119,999,64113,.13099E-3,.136E-4,0
MMS 1,2015-011A,2026-06-15T06:00:02.000160,0.28359192,.8322323,72.1824,348.7825,167.3834,100.8961,0,U,40482,999,139,0,-.622E-5,0
MMS 2,2015-011B,2026-06-15T06:00:02.000160,0.28359216,.8323106,72.1825,348.7848,167.3890,100.8847,0,U,40483,999,139,0,-.622E-5,0
MMS 3,2015-011C,2026-06-15T06:00:02.000160,0.28359178,.8322287,72.1856,348.7893,167.3835,100.8804,0,U,40484,999,139,0,-.622E-5,0
MMS 4,2015-011D,2026-06-15T06:00:02.000160,0.28358284,.8321942,72.1829,348.7846,167.3933,100.8589,0,U,40485,999,139,0,-.621E-5,0
ASTROSAT,2015-052A,2026-06-14T17:41:08.412288,14.82503562,.00079585,5.9956,172.9911,355.8728,4.1334,0,U,40930,999,57947,.94400002E-4,.1447E-4,0
DAMPE,2015-078A,2026-06-15T01:50:20.737824,15.30780475,.0013828,97.4552,171.5330,83.8102,276.4713,0,U,41173,999,58422,.41967E-4,.1173E-4,0
PISAT,2016-059B,2026-06-14T23:08:36.310560,14.68980131,.00281882,97.8179,166.5126,210.0908,149.8680,0,U,41784,999,51941,.13601128E-3,.754E-5,0
HXMT (HUIYAN),2017-034A,2026-06-15T05:26:32.832960,15.18467526,.00304,43.0126,193.9574,134.3223,226.0125,0,U,42758,999,49736,.13761E-3,.2675E-4,0
FLYING LAPTOP,2017-042G,2026-06-15T04:27:31.982112,15.01133413,.0019559,97.4673,321.7954,128.3139,231.9848,0,U,42831,999,48615,.22668E-3,.2857E-4,0
ZHANGHENG 1-01 (CSES-1),2018-015C,2026-06-15T03:57:43.783776,15.20789264,.0017032,97.6863,331.7822,274.0633,85.8654,0,U,43194,999,46433,.2776E-3,.6068E-4,0
SALSAT,2020-068K,2026-06-14T23:41:15.080640,15.29772719,.0008203,97.8843,168.9175,317.5916,42.4688,0,U,46495,999,31502,.24187E-3,.6897E-4,0
IXPE,2021-121A,2026-06-15T04:00:01.998720,15.10234789,.0006924,0.2325,332.9716,45.6253,52.9997,0,U,49954,999,587,.63164E-3,.1158E-3,0
SMILE,2026-109A,2026-05-24T15:40:35.120928,14.57062785,.00091232,70.0007,229.2745,259.5159,100.4951,0,U,69123,999,80,-.42378883E-3,-.1976E-4,0
