SWARM A                 
1 39452U 13067B   26166.15493663  .00008997  00000+0  15477-3 0  9997
2 39452  87.3331  56.9974 0003007  94.7653 265.3951 15.50919224705937
SWARM C                 
1 39453U 13067C   26166.09029896  .00009867  00000+0  16982-3 0  9993
2 39453  87.3330  55.6025 0003002  95.2152 264.9452 15.50916759705880
BRITE-CA1 (TORONTO)     
1 40020U 14033L   26166.13533708  .00000601  00000+0  98268-4 0  9991
2 40020  97.9736 295.1011 0077249 283.7046  75.5570 14.72674008641916
OCO 2                   
1 40059U 14035A   26166.16406343  .00000332  00000+0  83724-4 0  9994
2 40059  98.2018 107.4879 0001503  86.1333 274.0037 14.57109710635751
BRITE-PL2 (HEWELIUSZ)   
1 40119U 14049B   26166.09692552  .00001360  00000+0  13099-3 0  9996
2 40119  97.9096 278.0808 0015219 114.6799 245.6008 14.94586836641139
MMS 1                   
1 40482U 15011A   26166.25002315 -.00000622  00000+0  00000+0 0  9994
2 40482  72.1824 348.7825 8322323 167.3834 100.8961  0.28359192  1393
MMS 2                   
1 40483U 15011B   26166.25002315 -.00000622  00000+0  00000+0 0  9995
2 40483  72.1825 348.7848 8323106 167.3890 100.8847  0.28359216  1392
MMS 3                   
1 40484U 15011C   26166.25002315 -.00000622  00000+0  00000+0 0  9996
2 40484  72.1856 348.7893 8322287 167.3835 100.8804  0.28359178  1395
MMS 4                   
1 40485U 15011D   26166.25002315 -.00000621  00000+0  00000+0 0  9996
2 40485  72.1829 348.7846 8321942 167.3933 100.8589  0.28358284  1397
ASTROSAT                
1 40930U 15052A   26165.73690292  .00001447  00000+0  94400-4 0  9993
2 40930   5.9956 172.9911 0007958 355.8728   4.1334 14.82503562579472
DAMPE                   
1 41173U 15078A   26166.07662891  .00001173  00000+0  41967-4 0  9999
2 41173  97.4552 171.5330 0013828  83.8102 276.4713 15.30780475584225
PISAT                   
1 41784U 16059B   26165.96430915  .00000754  00000+0  13601-3 0  9991
2 41784  97.8179 166.5126 0028188 210.0908 149.8680 14.68980131519418
HXMT (HUIYAN)           
1 42758U 17034A   26166.22676890  .00002675  00000+0  13761-3 0  9992
2 42758  43.0126 193.9574 0030400 134.3223 226.0125 15.18467526497369
FLYING LAPTOP           
1 42831U 17042G   26166.18578683  .00002857  00000+0  22668-3 0  9997
2 42831  97.4673 321.7954 0019559 128.3139 231.9848 15.01133413486154
ZHANGHENG 1-01 (CSES-1) 
1 43194U 18015C   26166.16509009  .00006068  00000+0  27760-3 0  9991
2 43194  97.6863 331.7822 0017032 274.0633  85.8654 15.20789264464336
SALSAT                  
1 46495U 20068K   26165.98698010  .00006897  00000+0  24187-3 0  9999
2 46495  97.8843 168.9175 0008203 317.5916  42.4688 15.29772719315024
IXPE                    
1 49954U 21121A   26166.16668980  .00011580  00000+0  63164-3 0  9990
2 49954   0.2325 332.9716 0006924  45.6253  52.9997 15.10234789  5873
SMILE                   
1 69123U 26109A   26144.65318427 -.00001976  00000+0 -42379-3 0  9994
2 69123  70.0007 229.2745 0009123 259.5159 100.4951 14.57062785   802
